{
  "type": "FeatureCollection",
  "features": [
    {
      "type": "Feature",
      "properties": {
        "norad_id": 37126,
        "name": "COSMOS 2251 DEB",
        "group": "cosmos-2251-debris",
        "lat": -55.67322260896737,
        "lon": -55.049729873824994,
        "alt_km": 665.0724865152979,
        "timestamp": "2025-12-25T07:41:10.120858+00:00",
        "meta_object_name": "COSMOS 2251 DEB",
        "meta_object_id": "1993-036BGY",
        "meta_epoch": "2025-12-24T15:39:33.331104",
        "meta_mean_motion": 14.73108461,
        "meta_eccentricity": 0.01225646,
        "meta_inclination": 73.9509,
        "meta_ra_of_asc_node": 331.1918,
        "meta_arg_of_pericenter": 206.7784,
        "meta_mean_anomaly": 152.7029,
        "meta_ephemeris_type": 0,
        "meta_classification_type": "U",
        "meta_norad_cat_id": 37126,
        "meta_element_set_no": 999,
        "meta_rev_at_epoch": 8274,
        "meta_bstar": 0.00019190968,
        "meta_mean_motion_dot": 1.353e-05,
        "meta_mean_motion_ddot": 0,
        "tle_line1": "1 37126U 93036BGY 25358.65246911  .00001353  00000+0  19191-3 0  9992",
        "tle_line2": "2 37126  73.9509 331.1918 0122564 206.7784 152.7029 14.73108461 82746"
      },
      "geometry": {
        "type": "Point",
        "coordinates": [
          -55.049729873824994,
          -55.67322260896737
        ]
      }
    },
    {
      "type": "Feature",
      "properties": {
        "norad_id": 37132,
        "name": "COSMOS 2251 DEB",
        "group": "cosmos-2251-debris",
        "lat": -29.19814745447184,
        "lon": 38.522467889376145,
        "alt_km": 666.2128143100963,
        "timestamp": "2025-12-25T07:41:10.120868+00:00",
        "meta_object_name": "COSMOS 2251 DEB",
        "meta_object_id": "1993-036BHE",
        "meta_epoch": "2025-12-21T08:30:46.700352",
        "meta_mean_motion": 14.77932958,
        "meta_eccentricity": 0.00403307,
        "meta_inclination": 74.0023,
        "meta_ra_of_asc_node": 217.0951,
        "meta_arg_of_pericenter": 11.0309,
        "meta_mean_anomaly": 349.1741,
        "meta_ephemeris_type": 0,
        "meta_classification_type": "U",
        "meta_norad_cat_id": 37132,
        "meta_element_set_no": 999,
        "meta_rev_at_epoch": 62543,
        "meta_bstar": 0.0006420237,
        "meta_mean_motion_dot": 4.657e-05,
        "meta_mean_motion_ddot": 0,
        "tle_line1": "1 37132U 93036BHE 25355.35470718  .00004657  00000+0  64202-3 0  9990",
        "tle_line2": "2 37132  74.0023 217.0951 0040330  11.0309 349.1741 14.77932958625437"
      },
      "geometry": {
        "type": "Point",
        "coordinates": [
          38.522467889376145,
          -29.19814745447184
        ]
      }
    },
    {
      "type": "Feature",
      "properties": {
        "norad_id": 37270,
        "name": "COSMOS 2251 DEB",
        "group": "cosmos-2251-debris",
        "lat": 65.72993317485422,
        "lon": -4.919253401238928,
        "alt_km": 1103.0201700486214,
        "timestamp": "2025-12-25T07:41:10.120878+00:00",
        "meta_object_name": "COSMOS 2251 DEB",
        "meta_object_id": "1993-036BHJ",
        "meta_epoch": "2025-12-12T22:45:06.098400",
        "meta_mean_motion": 13.59808663,
        "meta_eccentricity": 0.03985351,
        "meta_inclination": 73.9378,
        "meta_ra_of_asc_node": 335.5481,
        "meta_arg_of_pericenter": 347.3958,
        "meta_mean_anomaly": 11.7404,
        "meta_ephemeris_type": 0,
        "meta_classification_type": "U",
        "meta_norad_cat_id": 37270,
        "meta_element_set_no": 999,
        "meta_rev_at_epoch": 77072,
        "meta_bstar": 0.0064936549,
        "meta_mean_motion_dot": 8.148e-05,
        "meta_mean_motion_ddot": 0,
        "tle_line1": "1 37270U 93036BHJ 25346.94798725  .00008148  00000+0  64937-2 0  9992",
        "tle_line2": "2 37270  73.9378 335.5481 0398535 347.3958  11.7404 13.59808663770728"
      },
      "geometry": {
        "type": "Point",
        "coordinates": [
          -4.919253401238928,
          65.72993317485422
        ]
      }
    },
    {
      "type": "Feature",
      "properties": {
        "norad_id": 37278,
        "name": "COSMOS 2251 DEB",
        "group": "cosmos-2251-debris",
        "lat": 61.873201200528975,
        "lon": -0.4249553933906463,
        "alt_km": 792.1302662413436,
        "timestamp": "2025-12-25T07:41:10.120888+00:00",
        "meta_object_name": "COSMOS 2251 DEB",
        "meta_object_id": "1993-036BHS",
        "meta_epoch": "2025-12-22T06:43:10.079328",
        "meta_mean_motion": 14.15136552,
        "meta_eccentricity": 0.02988964,
        "meta_inclination": 73.7862,
        "meta_ra_of_asc_node": 332.08,
        "meta_arg_of_pericenter": 152.8639,
        "meta_mean_anomaly": 274.4968,
        "meta_ephemeris_type": 0,
        "meta_classification_type": "U",
        "meta_norad_cat_id": 37278,
        "meta_element_set_no": 999,
        "meta_rev_at_epoch": 63964,
        "meta_bstar": 0.0007998951,
        "meta_mean_motion_dot": 2.366e-05,
        "meta_mean_motion_ddot": 0,
        "tle_line1": "1 37278U 93036BHS 25356.27997777  .00002366  00000+0  79990-3 0  9997",
        "tle_line2": "2 37278  73.7862 332.0800 0298896 152.8639 274.4968 14.15136552639645"
      },
      "geometry": {
        "type": "Point",
        "coordinates": [
          -0.4249553933906463,
          61.873201200528975
        ]
      }
    },
    {
      "type": "Feature",
      "properties": {
        "norad_id": 37280,
        "name": "COSMOS 2251 DEB",
        "group": "cosmos-2251-debris",
        "lat": -29.215898092683044,
        "lon": -136.2068953562541,
        "alt_km": 771.9728651356936,
        "timestamp": "2025-12-25T07:41:10.120898+00:00",
        "meta_object_name": "COSMOS 2251 DEB",
        "meta_object_id": "1993-036BHU",
        "meta_epoch": "2025-12-24T08:42:55.097280",
        "meta_mean_motion": 14.19374869,
        "meta_eccentricity": 0.01298569,
        "meta_inclination": 74.0307,
        "meta_ra_of_asc_node": 36.2886,
        "meta_arg_of_pericenter": 162.4519,
        "meta_mean_anomaly": 198.1176,
        "meta_ephemeris_type": 0,
        "meta_classification_type": "U",
        "meta_norad_cat_id": 37280,
        "meta_element_set_no": 999,
        "meta_rev_at_epoch": 57488,
        "meta_bstar": 0.0012209104,
        "meta_mean_motion_dot": 2.768e-05,
        "meta_mean_motion_ddot": 0,
        "tle_line1": "1 37280U 93036BHU 25358.36313770  .00002768  00000+0  12209-2 0  9992",
        "tle_line2": "2 37280  74.0307  36.2886 0129856 162.4519 198.1176 14.19374869574882"
      },
      "geometry": {
        "type": "Point",
        "coordinates": [
          -136.2068953562541,
          -29.215898092683044
        ]
      }
    },
    {
      "type": "Feature",
      "properties": {
        "norad_id": 37284,
        "name": "COSMOS 2251 DEB",
        "group": "cosmos-2251-debris",
        "lat": -73.99718176253175,
        "lon": 42.914997749168776,
        "alt_km": 744.1416704904514,
        "timestamp": "2025-12-25T07:41:10.120908+00:00",
        "meta_object_name": "COSMOS 2251 DEB",
        "meta_object_id": "1993-036BHY",
        "meta_epoch": "2025-12-10T18:04:20.469216",
        "meta_mean_motion": 14.12686618,
        "meta_eccentricity": 0.01605026,
        "meta_inclination": 74.0123,
        "meta_ra_of_asc_node": 160.2425,
        "meta_arg_of_pericenter": 312.4867,
        "meta_mean_anomaly": 59.8736,
        "meta_ephemeris_type": 0,
        "meta_classification_type": "U",
        "meta_norad_cat_id": 37284,
        "meta_element_set_no": 999,
        "meta_rev_at_epoch": 59147,
        "meta_bstar": 0.001592138,
        "meta_mean_motion_dot": 3.31e-05,
        "meta_mean_motion_ddot": 0,
        "tle_line1": "1 37284U 93036BHY 25344.75301469  .00003310  00000+0  15921-2 0  9994",
        "tle_line2": "2 37284  74.0123 160.2425 0160502 312.4867  59.8736 14.12686618591475"
      },
      "geometry": {
        "type": "Point",
        "coordinates": [
          42.914997749168776,
          -73.99718176253175
        ]
      }
    },
    {
      "type": "Feature",
      "properties": {
        "norad_id": 37292,
        "name": "COSMOS 2251 DEB",
        "group": "cosmos-2251-debris",
        "lat": -33.13313719441885,
        "lon": 17.296282817326674,
        "alt_km": 814.9405407306858,
        "timestamp": "2025-12-25T07:41:10.120918+00:00",
        "meta_object_name": "COSMOS 2251 DEB",
        "meta_object_id": "1993-036BJG",
        "meta_epoch": "2025-12-02T14:04:30.366912",
        "meta_mean_motion": 14.03226454,
        "meta_eccentricity": 0.02102512,
        "meta_inclination": 74.129,
        "meta_ra_of_asc_node": 67.3453,
        "meta_arg_of_pericenter": 73.1105,
        "meta_mean_anomaly": 289.2966,
        "meta_ephemeris_type": 0,
        "meta_classification_type": "U",
        "meta_norad_cat_id": 37292,
        "meta_element_set_no": 999,
        "meta_rev_at_epoch": 59706,
        "meta_bstar": 0.0022453288,
        "meta_mean_motion_dot": 4.236e-05,
        "meta_mean_motion_ddot": 0,
        "tle_line1": "1 37292U 93036BJG 25336.58646258  .00004236  00000+0  22453-2 0  9999",
        "tle_line2": "2 37292  74.1290  67.3453 0210251  73.1105 289.2966 14.03226454597064"
      },
      "geometry": {
        "type": "Point",
        "coordinates": [
          17.296282817326674,
          -33.13313719441885
        ]
      }
    }
  ]
}